NORAD_CAT_ID,OBJECT_NAME,OBJECT_TYPE,EPOCH,MEAN_MOTION,ECCENTRICITY,INCLINATION,RA_OF_ASC_NODE,ARG_OF_PERICENTER,MEAN_ANOMALY,BSTAR,MEAN_MOTION_DOT,MEAN_MOTION_DDOT,TLE_LINE0,TLE_LINE1,TLE_LINE2,SEMIMAJOR_AXIS,PERIOD,APOGEE,PERIGEE,DECAYED
52499.0,STARLINK-3894,PAYLOAD,2023-10-26 09:16:41,15.08848254,0.0001426,53.2177,333.62,88.9181,271.1975,0.0001057,1.395e-05,0.0,0 STARLINK-3894,1 52499U 22049BA  23299.38658904  .00001395  00000-0  10570-3 0  9998,2 52499  53.2177 333.6200 0001426  88.9181 271.1975 15.08848254 81760,6917.855,95.437,540.707,538.734,0.0
52499.0,STARLINK-3894,PAYLOAD,2023-10-26 18:49:00,15.08846794,0.0001444,53.2173,331.8347,88.9504,271.1653,0.00011322,1.515e-05,0.0,0 STARLINK-3894,1 52499U 22049BA  23299.78402796  .00001515  00000-0  11322-3 0  9998,2 52499  53.2173 331.8347 0001444  88.9504 271.1653 15.08846794 81824,6917.86,95.437,540.724,538.726,0.0
52499.0,STARLINK-3894,PAYLOAD,2023-10-27 09:07:27,15.08859067,0.0001498,53.2174,329.1615,97.191,262.9252,0.00030795,4.619e-05,0.0,0 STARLINK-3894,1 52499U 22049BA  23300.38018034  .00004619  00000-0  30795-3 0  9998,2 52499  53.2174 329.1615 0001498  97.1910 262.9252 15.08859067 82073,6917.822,95.436,540.723,538.651,0.0
52499.0,STARLINK-3894,PAYLOAD,2023-10-27 18:39:46,15.08848377,0.0001416,53.2177,327.3752,89.1087,271.0067,0.00018426,2.646e-05,0.0,0 STARLINK-3894,1 52499U 22049BA  23300.77762369  .00002646  00000-0  18426-3 0  9993,2 52499  53.2177 327.3752 0001416  89.1087 271.0067 15.08848377 82138,6917.855,95.437,540.699,538.74,0.0
52499.0,STARLINK-3894,PAYLOAD,2023-10-28 08:58:15,15.08828318,0.0001419,53.2169,324.7001,83.6493,276.4661,-0.00020155,-3.493e-05,0.0,0 STARLINK-3894,1 52499U 22049BA  23301.37379266 -.00003493  00000-0 -20155-3 0  9995,2 52499  53.2169 324.7001 0001419  83.6493 276.4661 15.08828318 82222,6917.916,95.438,540.763,538.799,0.0
52499.0,STARLINK-3894,PAYLOAD,2023-10-29 08:49:02,15.08860287,0.0001507,53.2161,320.2392,81.3386,278.7777,0.001205,0.00018952,0.0,0 STARLINK-3894,1 52499U 22049BA  23302.36739170  .00018952  00000-0  12050-2 0  9997,2 52499  53.2161 320.2392 0001507  81.3386 278.7777 15.08860287 82372,6917.818,95.436,540.726,538.641,0.0
52499.0,STARLINK-3894,PAYLOAD,2023-10-29 13:35:11,15.08874439,0.0001453,53.2154,319.3461,78.3916,281.7239,0.0014465,0.0002283,0.0,0 STARLINK-3894,1 52499U 22049BA  23302.56610703  .00022830  00000-0  14465-2 0  9991,2 52499  53.2154 319.3461 0001453  78.3916 281.7239 15.08874439 82242,6917.775,95.435,540.645,538.635,0.0
52499.0,STARLINK-3894,PAYLOAD,2023-10-29 18:21:21,15.08836126,0.0001211,53.216,318.4531,103.5209,256.5918,1.6799e-05,-2e-07,0.0,0 STARLINK-3894,1 52499U 22049BA  23302.76483078 -.00000020  00000-0  16799-4 0  9998,2 52499  53.2160 318.4531 0001211 103.5209 256.5918 15.08836126 82431,6917.892,95.438,540.595,538.919,0.0
52499.0,STARLINK-3894,PAYLOAD,2023-10-30 18:12:09,15.0883287,0.0001984,53.2153,313.9932,88.8048,271.3171,0.00092038,0.00014387,0.0,0 STARLINK-3894,1 52499U 22049BA  23303.75844115  .00014387  00000-0  92038-3 0  9990,2 52499  53.2153 313.9932 0001984  88.8048 271.3171 15.08832870 82428,6917.902,95.438,541.14,538.395,0.0
52499.0,STARLINK-3894,PAYLOAD,2023-10-31 00:33:41,15.08834351,0.0001675,53.2155,312.8034,91.9371,268.1813,0.00098369,0.000154,0.0,0 STARLINK-3894,1 52499U 22049BA  23304.02340169  .00015400  00000-0  98369-3 0  9991,2 52499  53.2155 312.8034 0001675  91.9371 268.1813 15.08834351 82627,6917.898,95.438,540.921,538.604,0.0
52499.0,STARLINK-3894,PAYLOAD,2023-10-31 06:55:14,15.08835896,0.0001542,53.2159,311.6136,94.7448,265.3721,0.00051705,7.95e-05,0.0,0 STARLINK-3894,1 52499U 22049BA  23304.28836234  .00007950  00000-0  51705-3 0  9996,2 52499  53.2159 311.6136 0001542  94.7448 265.3721 15.08835896 82509,6917.893,95.438,540.825,538.691,0.0
52499.0,STARLINK-3894,PAYLOAD,2023-10-31 18:02:56,15.08843185,0.0001553,53.2162,309.5321,90.7439,269.3731,0.00077771,0.00012112,0.0,0 STARLINK-3894,1 52499U 22049BA  23304.75204371  .00012112  00000-0  77771-3 0  9996,2 52499  53.2162 309.5321 0001553  90.7439 269.3731 15.08843185 82733,6917.871,95.437,540.81,538.661,0.0
52499.0,STARLINK-3894,PAYLOAD,2023-11-01 09:56:47,15.08862157,0.0001584,53.216,306.5577,91.7356,268.3818,0.00092062,0.00014403,0.0,0 STARLINK-3894,1 52499U 22049BA  23305.41443783  .00014403  00000-0  92062-3 0  9997,2 52499  53.2160 306.5577 0001584  91.7356 268.3818 15.08862157 82672,6917.813,95.436,540.773,538.582,0.0
52499.0,STARLINK-3894,PAYLOAD,2023-11-02 03:26:01,15.08848676,0.0001552,53.2163,303.2873,84.2729,275.844,0.00031901,4.794e-05,0.0,0 STARLINK-3894,1 52499U 22049BA  23306.14307860  .00004794  00000-0  31901-3 0  9990,2 52499  53.2163 303.2873 0001552  84.2729 275.8440 15.08848676 82948,6917.854,95.437,540.793,538.645,0.0
52499.0,STARLINK-3894,PAYLOAD,2023-11-02 06:36:48,15.08850734,0.0001585,53.2165,302.6926,97.8474,262.2698,0.0003736,5.665e-05,0.0,0 STARLINK-3894,1 52499U 22049BA  23306.27555689  .00005665  00000-0  37360-3 0  9991,2 52499  53.2165 302.6926 0001585  97.8474 262.2698 15.08850734 82803,6917.848,95.437,540.809,538.616,0.0
52499.0,STARLINK-3894,PAYLOAD,2023-11-03 04:52:12,15.08839154,0.000163,53.2165,298.5296,101.1973,258.9202,0.00013612,1.879e-05,0.0,0 STARLINK-3894,1 52499U 22049BA  23307.20292047  .00001879  00000-0  13612-3 0  9998,2 52499  53.2165 298.5296 0001630 101.1973 258.9202 15.08839154 83100,6917.883,95.438,540.876,538.62,0.0
52499.0,STARLINK-3894,PAYLOAD,2023-11-03 15:59:54,15.08838537,0.0001638,53.2165,296.4486,96.528,263.5899,0.00014966,2.095e-05,0.0,0 STARLINK-3894,1 52499U 22049BA  23307.66660214  .00002095  00000-0  14966-3 0  9997,2 52499  53.2165 296.4486 0001638  96.5280 263.5899 15.08838537 83012,6917.885,95.438,540.883,538.617,0.0
52499.0,STARLINK-3894,PAYLOAD,2023-11-04 06:18:22,15.08839239,0.0001547,53.2168,293.7758,105.7215,254.3948,9.8548e-05,1.281e-05,0.0,0 STARLINK-3894,1 52499U 22049BA  23308.26276376  .00001281  00000-0  98548-4 0  9991,2 52499  53.2168 293.7758 0001547 105.7215 254.3948 15.08839239 83267,6917.883,95.438,540.818,538.678,0.0
52499.0,STARLINK-3894,PAYLOAD,2023-11-04 15:50:41,15.08840193,0.0001489,53.2165,291.9879,92.0378,268.0785,0.00016392,2.322e-05,0.0,0 STARLINK-3894,1 52499U 22049BA  23308.66020448  .00002322  00000-0  16392-3 0  9995,2 52499  53.2165 291.9879 0001489  92.0378 268.0785 15.08840193 83162,6917.88,95.438,540.775,538.715,0.0
52499.0,STARLINK-3894,PAYLOAD,2023-11-05 09:19:55,15.08855762,0.0001581,53.2159,288.7177,94.0975,266.0198,0.00042806,6.534e-05,0.0,0 STARLINK-3894,1 52499U 22049BA  23309.38883965  .00006534  00000-0  42806-3 0  9994,2 52499  53.2159 288.7177 0001581  94.0975 266.0198 15.08855762 83432,6917.832,95.437,540.791,538.604,0.0
52499.0,STARLINK-3894,PAYLOAD,2023-11-05 15:41:28,15.08839366,0.000213,53.2163,287.5288,99.2361,260.8872,0.00011931,1.611e-05,0.0,0 STARLINK-3894,1 52499U 22049BA  23309.65380677  .00001611  00000-0  11931-3 0  9992,2 52499  53.2163 287.5288 0002130  99.2361 260.8872 15.08839366 83471,6917.882,95.438,541.221,538.274,0.0
52499.0,STARLINK-3894,PAYLOAD,2023-11-06 02:49:09,15.08879706,0.0001712,53.2158,285.4482,125.1114,235.0038,0.00087846,0.00013735,0.0,0 STARLINK-3894,1 52499U 22049BA  23310.11746761  .00013735  00000-0  87846-3 0  9993,2 52499  53.2158 285.4482 0001712 125.1114 235.0038 15.08879706 83546,6917.759,95.435,540.808,538.44,0.0
52499.0,STARLINK-3894,PAYLOAD,2023-11-06 07:35:18,15.08916834,0.000162,53.2157,284.5558,102.7237,257.3936,0.0034818,0.0005568,0.0,0 STARLINK-3894,1 52499U 22049BA  23310.31618409  .00055680  00000-0  34818-2 0  9997,2 52499  53.2157 284.5558 0001620 102.7237 257.3936 15.08916834 83575,6917.646,95.433,540.631,538.39,0.0
52499.0,STARLINK-3894,PAYLOAD,2023-11-06 15:32:14,15.08876207,0.0002456,53.216,283.0672,77.4065,282.7201,0.00068611,0.00010659,0.0,0 STARLINK-3894,1 52499U 22049BA  23310.64738532  .00010659  00000-0  68611-3 0  9999,2 52499  53.2160 283.0672 0002456  77.4065 282.7201 15.08876207 83627,6917.77,95.435,541.334,537.936,0.0
52499.0,STARLINK-3894,PAYLOAD,2023-11-07 04:15:20,15.08808371,0.0001278,53.2153,280.6887,84.3554,275.7584,0.0006608,0.00010235,0.0,0 STARLINK-3894,1 52499U 22049BA  23311.17731663  .00010235  00000-0  66080-3 0  9994,2 52499  53.2153 280.6887 0001278  84.3554 275.7584 15.08808371 83703,6917.977,95.44,540.726,538.958,0.0
52499.0,STARLINK-3894,PAYLOAD,2023-11-07 07:26:06,15.08805586,0.000124,53.2153,280.0939,77.5331,282.5799,0.0017451,0.00027568,0.0,0 STARLINK-3894,1 52499U 22049BA  23311.30980181  .00027568  00000-0  17451-2 0  9994,2 52499  53.2153 280.0939 0001240  77.5331 282.5799 15.08805586 83564,6917.986,95.44,540.708,538.993,0.0
52499.0,STARLINK-3894,PAYLOAD,2023-11-08 04:06:08,15.08847641,0.0001223,53.2154,276.2277,84.4745,275.6386,0.0019992,0.00031679,0.0,0 STARLINK-3894,1 52499U 22049BA  23312.17093148  .00031679  00000-0  19992-2 0  9998,2 52499  53.2154 276.2277 0001223  84.4745 275.6386 15.08847641 83859,6917.857,95.437,540.568,538.876,0.0
52499.0,STARLINK-3894,PAYLOAD,2023-11-08 15:13:50,15.08861603,0.0001493,53.216,274.1459,90.5848,269.5316,0.0017919,0.00028362,0.0,0 STARLINK-3894,1 52499U 22049BA  23312.63461000  .00028362  00000-0  17919-2 0  9997,2 52499  53.2160 274.1459 0001493  90.5848 269.5316 15.08861603 83923,6917.814,95.436,540.712,538.647,0.0
52499.0,STARLINK-3894,PAYLOAD,2023-11-09 03:56:55,15.08859122,0.0001304,53.2158,271.7709,89.6799,270.4342,0.0018741,0.0002968,0.0,0 STARLINK-3894,1 52499U 22049BA  23313.16452569  .00029680  00000-0  18741-2 0  9994,2 52499  53.2158 271.7709 0001304  89.6799 270.4342 15.08859122 84009,6917.822,95.436,540.589,538.785,0.0
52499.0,STARLINK-3894,PAYLOAD,2023-11-09 07:07:41,15.08874345,0.0001538,53.2164,271.1726,94.1384,265.9784,0.0016671,0.00026369,0.0,0 STARLINK-3894,1 52499U 22049BA  23313.29700314  .00026369  00000-0  16671-2 0  9993,2 52499  53.2164 271.1726 0001538  94.1384 265.9784 15.08874345 83865,6917.775,95.435,540.704,538.576,0.0
